0 METEOR 2-5 DEB
1 36888U 79095AD  13281.83335711  .00011395  00000-0  21050-2 0  3172
2 36888 081.1809 109.3736 0009999 034.8167 325.3686 14.65335732585208
0 METEOR 2-5 DEB
1 36888U 79095AD  13282.24305803  .00019819  00000-0  36569-2 0  3188
2 36888 081.1809 108.9343 0009989 033.5230 326.6602 14.65359524585266
0 METEOR 2-5 DEB
1 36888U 79095AD  13283.19900423  .00016813  00000-0  31015-2 0  3195
2 36888 081.1806 107.9089 0009889 030.8325 329.3455 14.65383757585400
0 METEOR 2-5 DEB
1 36888U 79095AD  13285.79363653  .00014162  00000-0  26095-2 0  3211
2 36888 081.1805 105.1268 0009797 022.7089 337.4543 14.65447024585780
0 METEOR 2-5 DEB
1 36888U 79095AD  13287.77367163  .00020661  00000-0  37999-2 0  3228
2 36888 081.1798 103.0029 0009740 016.4383 343.7132 14.65500953586076
0 METEOR 2-5 DEB
1 36888U 79095AD  13290.16324278  .00022247  00000-0  40833-2 0  3239
2 36888 081.1800 100.4409 0009336 009.3614 350.7760 14.65587020586426
0 METEOR 2-5 DEB
1 36888U 79095AD  13292.14307234  .00017974  00000-0  32952-2 0  3247
2 36888 081.1806 098.3169 0009311 001.5227 358.6001 14.65659250586719
0 METEOR 2-5 DEB
1 36888U 79095AD  13294.73718812  .00026502  00000-0  48443-2 0  3252
2 36888 081.1816 095.5342 0009374 352.0571 008.0480 14.65748289587097
